APRIZESAT 2             
1 28366U 04025A   25067.46941625  .00000561  00000+0  18824-3 0  9990
2 28366  98.0759 255.7872 0105410 215.7615 143.6483 14.37696695 84714
SAUDICOMSAT 1           
1 28369U 04025D   25067.92817611  .00001119  00000+0  27041-3 0  9992
2 28369  98.5657  60.8998 0032766  10.6859 349.5026 14.54835925 96463
SAUDICOMSAT 2           
1 28370U 04025E   25067.87862282  .00000707  00000+0  19394-3 0  9996
2 28370  98.6564  62.2200 0055005 227.8243 131.8272 14.49451993 92683
APRIZESAT 1             
1 28372U 04025G   25067.87522978  .00000636  00000+0  16973-3 0  9994
2 28372  98.6200  61.2338 0046004 128.7647 231.7672 14.51310398 94401
NANOSAT-1               
1 28493U 04049B   25067.90368982  .00002520  00000+0  35287-3 0  9994
2 28493  98.1648 190.5067 0003835   4.7695 355.3551 14.78456942 86654
SAUDICOMSAT 7           
1 31119U 07012C   25067.85833309  .00001362  00000+0  25762-3 0  9990
2 31119  98.3160  29.5941 0055790 213.8132 145.9508 14.65092583954272
SAUDICOMSAT 6           
1 31121U 07012E   25067.80997012  .00001793  00000+0  35783-3 0  9992
2 31121  98.3467  23.8415 0072532 337.1113  22.6860 14.61606827952177
SAUDICOMSAT 5           
1 31124U 07012H   25067.78631189  .00001506  00000+0  27293-3 0  9991
2 31124  98.2866  30.3892 0049000 148.5195 211.8958 14.67033707955329
SAUDICOMSAT 3           
1 31125U 07012J   25067.77479110  .00002091  00000+0  35781-3 0  9996
2 31125  98.2535  31.0178 0041613  83.6281 276.9661 14.69369971956449
SAUDICOMSAT 4           
1 31127U 07012L   25067.87342595  .00001537  00000+0  29808-3 0  9992
2 31127  98.3361  28.1071 0063107 272.5083  86.8895 14.63522869953297
APRIZESAT 4             
1 35684U 09041D   25067.74568343  .00001559  00000+0  19705-3 0  9994
2 35684  98.1976 127.6434 0044824  30.6668 329.7150 14.82718228842369
APRIZESAT 3             
1 35686U 09041F   25067.84427168  .00004836  00000+0  44292-3 0  9996
2 35686  98.1385 196.4722 0065161 161.4587 198.9028 14.93820728846847
AISSAT 1                
1 36797U 10035C   25067.72919456  .00004529  00000+0  42725-3 0  9996
2 36797  98.1501 305.1270 0010152 149.2578 210.9238 14.94266504794636
S-NET D                 
1 43186U 18014G   25067.73118922  .00008755  00000+0  53861-3 0  9999
2 43186  97.5711 331.6361 0009356 171.8745 188.2637 15.10226790388358
S-NET B                 
1 43187U 18014H   25067.27165951  .00007608  00000+0  46889-3 0  9991
2 43187  97.5712 331.1490 0010191 170.1007 190.0425 15.10200213388280
S-NET A                 
1 43188U 18014J   25067.73187819  .00008646  00000+0  53183-3 0  9998
2 43188  97.5723 331.7423 0010074 168.8824 191.2630 15.10230247388355
S-NET C                 
1 43189U 18014K   25067.73765615  .00008802  00000+0  54148-3 0  9991
2 43189  97.5738 331.7462 0011867 163.4877 196.6741 15.10205707386909
SALSAT                  
1 46495U 20068K   25067.97116713  .00012052  00000+0  55349-3 0  9997
2 46495  97.8519  41.9065 0014124 117.9834 242.2831 15.20470312244444
OOV-CUBE (TUBSAT-30)    
1 60240U 24128F   25068.12969239  .00005912  00000+0  48876-3 0  9993
2 60240  61.9971  43.2880 0042047  33.0038 327.3663 14.99329001 36294
